SL-14 R/B               
1 16792U 86046B   26038.63201818  .00000581  00000+0  64175-4 0  9997
2 16792  82.4817 108.5865 0022299 330.7422  29.2543 14.85561338121941
SL-14 R/B               
1 16882U 86055B   26038.42795867  .00000755  00000+0  84176-4 0  9992
2 16882  82.5232 155.1080 0020338  73.8211 355.0109 14.85610787114878
AJISAI (EGS)            
1 16908U 86061A   26038.60413168 -.00000114  00000+0 -11751-3 0  9998
2 16908  50.0078 185.8607 0011241 209.5312 236.5819 12.44515324464258
COSMOS 1812             
1 17295U 87003A   26038.61037517  .00301380  33682-4  80433-3 0  9993
2 17295  82.4780 229.7167 0001004 328.8021  31.3194 15.94476858139650
SL-14 R/B               
1 17567U 87024B   26038.60905138  .00000615  00000+0  67247-4 0  9999
2 17567  82.5293 121.0352 0018283   5.3404 354.8003 14.86103235 83668
COSMOS 1833             
1 17589U 87027A   26038.42078400  .00000065  00000+0  60373-4 0  9991
2 17589  70.9212  29.6328 0024874 255.0356 104.8012 14.13056233  6048
SL-16 R/B               
1 17590U 87027B   26038.27035013 -.00000144  00000+0 -47822-4 0  9993
2 17590  71.0049 340.5940 0005174 195.4272 164.6695 14.17163716 11036
SL-14 R/B               
1 17912U 87038B   26038.31904873  .00000734  00000+0  82446-4 0  9991
2 17912  82.5042 325.4108 0017692 264.9832  94.9364 14.85339245 74724
COSMOS 1844             
1 17973U 87041A   26038.55869475  .00000381  00000+0  22246-3 0  9995
2 17973  70.8980  97.7331 0028830  66.3352 294.0791 14.14539572999322
SL-14 R/B               
1 18153U 87055B   26038.43597769  .00000736  00000+0  81889-4 0  9995
2 18153  82.4995  17.5406 0022167 111.9283 248.4292 14.85591864 65444
COSMOS 1867             
1 18187U 87060A   26038.40074874  .00000006  00000+0  39907-4 0  9996
2 18187  65.0109  31.5259 0014091 276.3787  83.5692 14.31498057 15605
SL-14 R/B               
1 18749U 88001B   26038.63128087  .00000627  00000+0  69719-4 0  9990
2 18749  82.5105 223.6326 0017576 342.5171  17.5437 14.85491787 37567
