CCSDS_OMM_VERS = 2.0
CREATION_DATE  = 
ORIGINATOR     = 

OBJECT_NAME    = SL-14 R/B
OBJECT_ID      = 1986-046B
CENTER_NAME    = EARTH
REF_FRAME      = TEME
TIME_SYSTEM    = UTC
MEAN_ELEMENT_THEORY = SGP/SGP4

EPOCH          = 2026-02-07T15:10:06.370752
MEAN_MOTION    = 14.85561338
ECCENTRICITY   = .00222991
INCLINATION    = 82.4817
RA_OF_ASC_NODE = 108.5865
ARG_OF_PERICENTER = 330.7422
MEAN_ANOMALY   = 29.2543

EPHEMERIS_TYPE = 0
CLASSIFICATION_TYPE = U
NORAD_CAT_ID   = 16792
ELEMENT_SET_NO = 999
REV_AT_EPOCH   = 12194
BSTAR          = .64174606E-4
MEAN_MOTION_DOT = .581E-5
MEAN_MOTION_DDOT = 0

CCSDS_OMM_VERS = 2.0
CREATION_DATE  = 
ORIGINATOR     = 

OBJECT_NAME    = SL-14 R/B
OBJECT_ID      = 1986-055B
CENTER_NAME    = EARTH
REF_FRAME      = TEME
TIME_SYSTEM    = UTC
MEAN_ELEMENT_THEORY = SGP/SGP4

EPOCH          = 2026-02-07T10:16:15.629088
MEAN_MOTION    = 14.85610787
ECCENTRICITY   = .00203381
INCLINATION    = 82.5232
RA_OF_ASC_NODE = 155.1080
ARG_OF_PERICENTER = 73.8211
MEAN_ANOMALY   = 355.0109

EPHEMERIS_TYPE = 0
CLASSIFICATION_TYPE = U
NORAD_CAT_ID   = 16882
ELEMENT_SET_NO = 999
REV_AT_EPOCH   = 11487
BSTAR          = .84175804E-4
MEAN_MOTION_DOT = .755E-5
MEAN_MOTION_DDOT = 0

CCSDS_OMM_VERS = 2.0
CREATION_DATE  = 
ORIGINATOR     = 

OBJECT_NAME    = AJISAI (EGS)
OBJECT_ID      = 1986-061A
CENTER_NAME    = EARTH
REF_FRAME      = TEME
TIME_SYSTEM    = UTC
MEAN_ELEMENT_THEORY = SGP/SGP4

EPOCH          = 2026-02-07T14:29:56.977152
MEAN_MOTION    = 12.44515324
ECCENTRICITY   = .00112416
INCLINATION    = 50.0078
RA_OF_ASC_NODE = 185.8607
ARG_OF_PERICENTER = 209.5312
MEAN_ANOMALY   = 236.5819

EPHEMERIS_TYPE = 0
CLASSIFICATION_TYPE = U
NORAD_CAT_ID   = 16908
ELEMENT_SET_NO = 999
REV_AT_EPOCH   = 46425
BSTAR          = -.11751493E-3
MEAN_MOTION_DOT = -.114E-5
MEAN_MOTION_DDOT = 0

CCSDS_OMM_VERS = 2.0
CREATION_DATE  = 
ORIGINATOR     = 

OBJECT_NAME    = COSMOS 1812
OBJECT_ID      = 1987-003A
CENTER_NAME    = EARTH
REF_FRAME      = TEME
TIME_SYSTEM    = UTC
MEAN_ELEMENT_THEORY = SGP/SGP4

EPOCH          = 2026-02-07T14:38:56.414688
MEAN_MOTION    = 15.94476858
ECCENTRICITY   = .00010043
INCLINATION    = 82.4780
RA_OF_ASC_NODE = 229.7167
ARG_OF_PERICENTER = 328.8021
MEAN_ANOMALY   = 31.3194

EPHEMERIS_TYPE = 0
CLASSIFICATION_TYPE = U
NORAD_CAT_ID   = 17295
ELEMENT_SET_NO = 999
REV_AT_EPOCH   = 13965
BSTAR          = .80432872E-3
MEAN_MOTION_DOT = .30138E-2
MEAN_MOTION_DDOT = .33681972E-4

CCSDS_OMM_VERS = 2.0
CREATION_DATE  = 
ORIGINATOR     = 

OBJECT_NAME    = SL-14 R/B
OBJECT_ID      = 1987-024B
CENTER_NAME    = EARTH
REF_FRAME      = TEME
TIME_SYSTEM    = UTC
MEAN_ELEMENT_THEORY = SGP/SGP4

EPOCH          = 2026-02-07T14:37:02.039232
MEAN_MOTION    = 14.86103235
ECCENTRICITY   = .00182836
INCLINATION    = 82.5293
RA_OF_ASC_NODE = 121.0352
ARG_OF_PERICENTER = 5.3404
MEAN_ANOMALY   = 354.8003

EPHEMERIS_TYPE = 0
CLASSIFICATION_TYPE = U
NORAD_CAT_ID   = 17567
ELEMENT_SET_NO = 999
REV_AT_EPOCH   = 8366
BSTAR          = .67247409E-4
MEAN_MOTION_DOT = .615E-5
MEAN_MOTION_DDOT = 0

CCSDS_OMM_VERS = 2.0
CREATION_DATE  = 
ORIGINATOR     = 

OBJECT_NAME    = COSMOS 1833
OBJECT_ID      = 1987-027A
CENTER_NAME    = EARTH
REF_FRAME      = TEME
TIME_SYSTEM    = UTC
MEAN_ELEMENT_THEORY = SGP/SGP4

EPOCH          = 2026-02-07T10:05:55.737600
MEAN_MOTION    = 14.13056233
ECCENTRICITY   = .00248746
INCLINATION    = 70.9212
RA_OF_ASC_NODE = 29.6328
ARG_OF_PERICENTER = 255.0356
MEAN_ANOMALY   = 104.8012

EPHEMERIS_TYPE = 0
CLASSIFICATION_TYPE = U
NORAD_CAT_ID   = 17589
ELEMENT_SET_NO = 999
REV_AT_EPOCH   = 604
BSTAR          = .60372604E-4
MEAN_MOTION_DOT = .65E-6
MEAN_MOTION_DDOT = 0

CCSDS_OMM_VERS = 2.0
CREATION_DATE  = 
ORIGINATOR     = 

OBJECT_NAME    = SL-16 R/B
OBJECT_ID      = 1987-027B
CENTER_NAME    = EARTH
REF_FRAME      = TEME
TIME_SYSTEM    = UTC
MEAN_ELEMENT_THEORY = SGP/SGP4

EPOCH          = 2026-02-07T06:29:18.251232
MEAN_MOTION    = 14.17163716
ECCENTRICITY   = .0005174
INCLINATION    = 71.0049
RA_OF_ASC_NODE = 340.5940
ARG_OF_PERICENTER = 195.4272
MEAN_ANOMALY   = 164.6695

EPHEMERIS_TYPE = 0
CLASSIFICATION_TYPE = U
NORAD_CAT_ID   = 17590
ELEMENT_SET_NO = 999
REV_AT_EPOCH   = 1103
BSTAR          = -.47822E-4
MEAN_MOTION_DOT = -.144E-5
MEAN_MOTION_DDOT = 0

CCSDS_OMM_VERS = 2.0
CREATION_DATE  = 
ORIGINATOR     = 

OBJECT_NAME    = SL-14 R/B
OBJECT_ID      = 1987-038B
CENTER_NAME    = EARTH
REF_FRAME      = TEME
TIME_SYSTEM    = UTC
MEAN_ELEMENT_THEORY = SGP/SGP4

EPOCH          = 2026-02-07T07:39:25.810272
MEAN_MOTION    = 14.85339245
ECCENTRICITY   = .0017692
INCLINATION    = 82.5042
RA_OF_ASC_NODE = 325.4108
ARG_OF_PERICENTER = 264.9832
MEAN_ANOMALY   = 94.9364

EPHEMERIS_TYPE = 0
CLASSIFICATION_TYPE = U
NORAD_CAT_ID   = 17912
ELEMENT_SET_NO = 999
REV_AT_EPOCH   = 7472
BSTAR          = .82446E-4
MEAN_MOTION_DOT = .734E-5
MEAN_MOTION_DDOT = 0

CCSDS_OMM_VERS = 2.0
CREATION_DATE  = 
ORIGINATOR     = 

OBJECT_NAME    = COSMOS 1844
OBJECT_ID      = 1987-041A
CENTER_NAME    = EARTH
REF_FRAME      = TEME
TIME_SYSTEM    = UTC
MEAN_ELEMENT_THEORY = SGP/SGP4

EPOCH          = 2026-02-07T13:24:31.226400
MEAN_MOTION    = 14.14539572
ECCENTRICITY   = .002883
INCLINATION    = 70.8980
RA_OF_ASC_NODE = 97.7331
ARG_OF_PERICENTER = 66.3352
MEAN_ANOMALY   = 294.0791

EPHEMERIS_TYPE = 0
CLASSIFICATION_TYPE = U
NORAD_CAT_ID   = 17973
ELEMENT_SET_NO = 999
REV_AT_EPOCH   = 99932
BSTAR          = .22245656E-3
MEAN_MOTION_DOT = .381E-5
MEAN_MOTION_DDOT = 0

CCSDS_OMM_VERS = 2.0
CREATION_DATE  = 
ORIGINATOR     = 

OBJECT_NAME    = SL-14 R/B
OBJECT_ID      = 1987-055B
CENTER_NAME    = EARTH
REF_FRAME      = TEME
TIME_SYSTEM    = UTC
MEAN_ELEMENT_THEORY = SGP/SGP4

EPOCH          = 2026-02-07T10:27:48.472416
MEAN_MOTION    = 14.85591864
ECCENTRICITY   = .0022167
INCLINATION    = 82.4995
RA_OF_ASC_NODE = 17.5406
ARG_OF_PERICENTER = 111.9283
MEAN_ANOMALY   = 248.4292

EPHEMERIS_TYPE = 0
CLASSIFICATION_TYPE = U
NORAD_CAT_ID   = 18153
ELEMENT_SET_NO = 999
REV_AT_EPOCH   = 6544
BSTAR          = .81889441E-4
MEAN_MOTION_DOT = .736E-5
MEAN_MOTION_DDOT = 0

CCSDS_OMM_VERS = 2.0
CREATION_DATE  = 
ORIGINATOR     = 

OBJECT_NAME    = COSMOS 1867
OBJECT_ID      = 1987-060A
CENTER_NAME    = EARTH
REF_FRAME      = TEME
TIME_SYSTEM    = UTC
MEAN_ELEMENT_THEORY = SGP/SGP4

EPOCH          = 2026-02-07T09:37:04.691136
MEAN_MOTION    = 14.31498057
ECCENTRICITY   = .00140919
INCLINATION    = 65.0109
RA_OF_ASC_NODE = 31.5259
ARG_OF_PERICENTER = 276.3787
MEAN_ANOMALY   = 83.5692

EPHEMERIS_TYPE = 0
CLASSIFICATION_TYPE = U
NORAD_CAT_ID   = 18187
ELEMENT_SET_NO = 999
REV_AT_EPOCH   = 1560
BSTAR          = .39907311E-4
MEAN_MOTION_DOT = .6E-7
MEAN_MOTION_DDOT = 0

CCSDS_OMM_VERS = 2.0
CREATION_DATE  = 
ORIGINATOR     = 

OBJECT_NAME    = SL-14 R/B
OBJECT_ID      = 1988-001B
CENTER_NAME    = EARTH
REF_FRAME      = TEME
TIME_SYSTEM    = UTC
MEAN_ELEMENT_THEORY = SGP/SGP4

EPOCH          = 2026-02-07T15:09:02.667168
MEAN_MOTION    = 14.85491787
ECCENTRICITY   = .0017576
INCLINATION    = 82.5105
RA_OF_ASC_NODE = 223.6326
ARG_OF_PERICENTER = 342.5171
MEAN_ANOMALY   = 17.5437

EPHEMERIS_TYPE = 0
CLASSIFICATION_TYPE = U
NORAD_CAT_ID   = 18749
ELEMENT_SET_NO = 999
REV_AT_EPOCH   = 3756
BSTAR          = .69718929E-4
MEAN_MOTION_DOT = .627E-5
MEAN_MOTION_DDOT = 0

